[{"OBJECT_NAME":"OBJECT G","OBJECT_ID":"2024-205G","EPOCH":"2026-03-09T23:05:54.449664","MEAN_MOTION":15.09392775,"ECCENTRICITY":0.00211709,"INCLINATION":97.4199,"RA_OF_ASC_NODE":141.9686,"ARG_OF_PERICENTER":130.0324,"MEAN_ANOMALY":230.2768,"EPHEMERIS_TYPE":0,"CLASSIFICATION_TYPE":"U","NORAD_CAT_ID":61900,"ELEMENT_SET_NO":999,"REV_AT_EPOCH":7318,"BSTAR":0.00059967322,"MEAN_MOTION_DOT":9.576e-5,"MEAN_MOTION_DDOT":0},{"OBJECT_NAME":"OBJECT BA","OBJECT_ID":"2018-099BA","EPOCH":"2026-03-09T15:44:21.430176","MEAN_MOTION":15.14740274,"ECCENTRICITY":0.00061825,"INCLINATION":97.413,"RA_OF_ASC_NODE":118.5956,"ARG_OF_PERICENTER":324.4238,"MEAN_ANOMALY":35.6581,"EPHEMERIS_TYPE":0,"CLASSIFICATION_TYPE":"U","NORAD_CAT_ID":43806,"ELEMENT_SET_NO":999,"REV_AT_EPOCH":39736,"BSTAR":0.00036107043,"MEAN_MOTION_DOT":6.632e-5,"MEAN_MOTION_DDOT":0}]
